{
  "type": "FeatureCollection",
  "features": [
    {
      "type": "Feature",
      "properties": {
        "norad_id": 22490,
        "name": "SCD 1",
        "group": "resource",
        "lat": 10.068480333420585,
        "lon": -56.841191189813074,
        "alt_km": 721.7795470817509,
        "timestamp": "2025-12-12T09:49:08.384224+00:00",
        "meta_object_name": "SCD 1",
        "meta_object_id": "1993-009B",
        "meta_epoch": "2025-12-12T03:41:26.414016",
        "meta_mean_motion": 14.45998507,
        "meta_eccentricity": 0.004178,
        "meta_inclination": 24.97,
        "meta_ra_of_asc_node": 282.3047,
        "meta_arg_of_pericenter": 318.798,
        "meta_mean_anomaly": 173.3664,
        "meta_ephemeris_type": 0,
        "meta_classification_type": "U",
        "meta_norad_cat_id": 22490,
        "meta_element_set_no": 999,
        "meta_rev_at_epoch": 73401,
        "meta_bstar": 0.00015153,
        "meta_mean_motion_dot": 7.4e-06,
        "meta_mean_motion_ddot": 0,
        "tle_line1": "1 22490U 93009B   25346.15377794  .00000740  00000+0  15153-3 0  9999",
        "tle_line2": "2 22490  24.9700 282.3047 0041780 318.7980 173.3664 14.45998507734010"
      },
      "geometry": {
        "type": "Point",
        "coordinates": [
          -56.841191189813074,
          10.068480333420585
        ]
      }
    },
    {
      "type": "Feature",
      "properties": {
        "norad_id": 25397,
        "name": "TECHSAT 1B (GO-32)",
        "group": "resource",
        "lat": -79.85414021333887,
        "lon": 31.843749755859907,
        "alt_km": 819.085856248943,
        "timestamp": "2025-12-12T09:49:08.384255+00:00",
        "meta_object_name": "TECHSAT 1B (GO-32)",
        "meta_object_id": "1998-043D",
        "meta_epoch": "2025-12-11T22:25:03.715392",
        "meta_mean_motion": 14.2437668,
        "meta_eccentricity": 0.0002072,
        "meta_inclination": 98.992,
        "meta_ra_of_asc_node": 329.1275,
        "meta_arg_of_pericenter": 58.5928,
        "meta_mean_anomaly": 301.5453,
        "meta_ephemeris_type": 0,
        "meta_classification_type": "U",
        "meta_norad_cat_id": 25397,
        "meta_element_set_no": 999,
        "meta_rev_at_epoch": 42467,
        "meta_bstar": 9.221e-05,
        "meta_mean_motion_dot": 1.67e-06,
        "meta_mean_motion_ddot": 0,
        "tle_line1": "1 25397U 98043D   25345.93407078  .00000167  00000+0  92210-4 0  9998",
        "tle_line2": "2 25397  98.9920 329.1275 0002072  58.5928 301.5453 14.24376680424677"
      },
      "geometry": {
        "type": "Point",
        "coordinates": [
          31.843749755859907,
          -79.85414021333887
        ]
      }
    },
    {
      "type": "Feature",
      "properties": {
        "norad_id": 25504,
        "name": "SCD 2",
        "group": "resource",
        "lat": 20.744611479684362,
        "lon": -161.67007874552624,
        "alt_km": 739.0621327547315,
        "timestamp": "2025-12-12T09:49:08.384270+00:00",
        "meta_object_name": "SCD 2",
        "meta_object_id": "1998-060A",
        "meta_epoch": "2025-12-11T19:15:45.408960",
        "meta_mean_motion": 14.45422604,
        "meta_eccentricity": 0.00166284,
        "meta_inclination": 24.9932,
        "meta_ra_of_asc_node": 147.6746,
        "meta_arg_of_pericenter": 303.6253,
        "meta_mean_anomaly": 190.8041,
        "meta_ephemeris_type": 0,
        "meta_classification_type": "U",
        "meta_norad_cat_id": 25504,
        "meta_element_set_no": 999,
        "meta_rev_at_epoch": 43318,
        "meta_bstar": 0.00011789504,
        "meta_mean_motion_dot": 6.04e-06,
        "meta_mean_motion_ddot": 0,
        "tle_line1": "1 25504U 98060A   25345.80260890  .00000604  00000+0  11790-3 0  9991",
        "tle_line2": "2 25504  24.9932 147.6746 0016628 303.6253 190.8041 14.45422604433181"
      },
      "geometry": {
        "type": "Point",
        "coordinates": [
          -161.67007874552624,
          20.744611479684362
        ]
      }
    },
    {
      "type": "Feature",
      "properties": {
        "norad_id": 25757,
        "name": "DLR-TUBSAT",
        "group": "resource",
        "lat": 77.05772967251956,
        "lon": -167.56536267770775,
        "alt_km": 711.3930859257989,
        "timestamp": "2025-12-12T09:49:08.384283+00:00",
        "meta_object_name": "DLR-TUBSAT",
        "meta_object_id": "1999-029B",
        "meta_epoch": "2025-12-12T04:24:02.433600",
        "meta_mean_motion": 14.52357346,
        "meta_eccentricity": 0.0013862,
        "meta_inclination": 98.6563,
        "meta_ra_of_asc_node": 330.6799,
        "meta_arg_of_pericenter": 194.5275,
        "meta_mean_anomaly": 165.5522,
        "meta_ephemeris_type": 0,
        "meta_classification_type": "U",
        "meta_norad_cat_id": 25757,
        "meta_element_set_no": 999,
        "meta_rev_at_epoch": 40610,
        "meta_bstar": 7.302e-05,
        "meta_mean_motion_dot": 2.49e-06,
        "meta_mean_motion_ddot": 0,
        "tle_line1": "1 25757U 99029B   25346.18336150  .00000249  00000+0  73020-4 0  9992",
        "tle_line2": "2 25757  98.6563 330.6799 0013862 194.5275 165.5522 14.52357346406102"
      },
      "geometry": {
        "type": "Point",
        "coordinates": [
          -167.56536267770775,
          77.05772967251956
        ]
      }
    },
    {
      "type": "Feature",
      "properties": {
        "norad_id": 25994,
        "name": "TERRA",
        "group": "resource",
        "lat": 26.725823491313744,
        "lon": -137.84656244300874,
        "alt_km": 687.9174869656408,
        "timestamp": "2025-12-12T09:49:08.384295+00:00",
        "meta_object_name": "TERRA",
        "meta_object_id": "1999-068A",
        "meta_epoch": "2025-12-12T02:47:03.105888",
        "meta_mean_motion": 14.60900844,
        "meta_eccentricity": 0.0003602,
        "meta_inclination": 97.975,
        "meta_ra_of_asc_node": 37.8234,
        "meta_arg_of_pericenter": 95.7408,
        "meta_mean_anomaly": 316.4628,
        "meta_ephemeris_type": 0,
        "meta_classification_type": "U",
        "meta_norad_cat_id": 25994,
        "meta_element_set_no": 999,
        "meta_rev_at_epoch": 38229,
        "meta_bstar": 0.00016866,
        "meta_mean_motion_dot": 7.81e-06,
        "meta_mean_motion_ddot": 0,
        "tle_line1": "1 25994U 99068A   25346.11600817  .00000781  00000+0  16866-3 0  9990",
        "tle_line2": "2 25994  97.9750  37.8234 0003602  95.7408 316.4628 14.60900844382299"
      },
      "geometry": {
        "type": "Point",
        "coordinates": [
          -137.84656244300874,
          26.725823491313744
        ]
      }
    },
    {
      "type": "Feature",
      "properties": {
        "norad_id": 27004,
        "name": "MAROC-TUBSAT",
        "group": "resource",
        "lat": -67.21199681416084,
        "lon": -49.420980875679305,
        "alt_km": 992.0476750803618,
        "timestamp": "2025-12-12T09:49:08.384307+00:00",
        "meta_object_name": "MAROC-TUBSAT",
        "meta_object_id": "2001-056D",
        "meta_epoch": "2025-12-12T00:23:36.400128",
        "meta_mean_motion": 13.70252839,
        "meta_eccentricity": 0.0019094,
        "meta_inclination": 99.7912,
        "meta_ra_of_asc_node": 154.4487,
        "meta_arg_of_pericenter": 262.0576,
        "meta_mean_anomaly": 210.9637,
        "meta_ephemeris_type": 0,
        "meta_classification_type": "U",
        "meta_norad_cat_id": 27004,
        "meta_element_set_no": 999,
        "meta_rev_at_epoch": 20055,
        "meta_bstar": 4.7466e-05,
        "meta_mean_motion_dot": -5e-08,
        "meta_mean_motion_ddot": 0,
        "tle_line1": "1 27004U 01056D   25346.01639352 -.00000005  00000+0  47466-4 0  9990",
        "tle_line2": "2 27004  99.7912 154.4487 0019094 262.0576 210.9637 13.70252839200556"
      },
      "geometry": {
        "type": "Point",
        "coordinates": [
          -49.420980875679305,
          -67.21199681416084
        ]
      }
    },
    {
      "type": "Feature",
      "properties": {
        "norad_id": 27424,
        "name": "AQUA",
        "group": "resource",
        "lat": 26.40654156872187,
        "lon": -56.92685374246472,
        "alt_km": 686.3539072956964,
        "timestamp": "2025-12-12T09:49:08.384319+00:00",
        "meta_object_name": "AQUA",
        "meta_object_id": "2002-022A",
        "meta_epoch": "2025-12-12T05:02:00.082752",
        "meta_mean_motion": 14.61807191,
        "meta_eccentricity": 0.000107,
        "meta_inclination": 98.4037,
        "meta_ra_of_asc_node": 307.0801,
        "meta_arg_of_pericenter": 115.3828,
        "meta_mean_anomaly": 302.7153,
        "meta_ephemeris_type": 0,
        "meta_classification_type": "U",
        "meta_norad_cat_id": 27424,
        "meta_element_set_no": 999,
        "meta_rev_at_epoch": 25595,
        "meta_bstar": 0.00036769,
        "meta_mean_motion_dot": 1.787e-05,
        "meta_mean_motion_ddot": 0,
        "tle_line1": "1 27424U 02022A   25346.20972318  .00001787  00000+0  36769-3 0  9993",
        "tle_line2": "2 27424  98.4037 307.0801 0001070 115.3828 302.7153 14.61807191255952"
      },
      "geometry": {
        "type": "Point",
        "coordinates": [
          -56.92685374246472,
          26.40654156872187
        ]
      }
    }
  ]
}